[{"OBJECT_NAME":"OBJECT B","OBJECT_ID":"2025-284B","EPOCH":"2026-03-09T22:41:21.082560","MEAN_MOTION":13.97295842,"ECCENTRICITY":0.00117879,"INCLINATION":80.3988,"RA_OF_ASC_NODE":32.8503,"ARG_OF_PERICENTER":139.3103,"MEAN_ANOMALY":220.8941,"EPHEMERIS_TYPE":0,"CLASSIFICATION_TYPE":"U","NORAD_CAT_ID":66914,"ELEMENT_SET_NO":999,"REV_AT_EPOCH":1362,"BSTAR":0.00013516882,"MEAN_MOTION_DOT":1.99e-6,"MEAN_MOTION_DDOT":0},{"OBJECT_NAME":"SL-3 R\/B","OBJECT_ID":"1982-116B","EPOCH":"2026-03-09T15:13:20.537472","MEAN_MOTION":14.15177969,"ECCENTRICITY":0.0070173,"INCLINATION":81.2527,"RA_OF_ASC_NODE":117.0396,"ARG_OF_PERICENTER":257.9074,"MEAN_ANOMALY":222.4534,"EPHEMERIS_TYPE":0,"CLASSIFICATION_TYPE":"U","NORAD_CAT_ID":13719,"ELEMENT_SET_NO":999,"REV_AT_EPOCH":23105,"BSTAR":4.5939e-5,"MEAN_MOTION_DOT":1.03e-6,"MEAN_MOTION_DDOT":0}]
